{"type": "FeatureCollection", "features": [ {"type": "Feature", "properties": {"norad_id": 35705, "name": "COSMOS 2251 DEB", "group": "cosmos-2251-debris", "lat": -7.370735712217211, "lon": 114.45169629249867, "alt_km": 648.2100952291612, "timestamp": "2025-12-22T18:58:53.829283+00:00", "meta": {"OBJECT_NAME": "COSMOS 2251 DEB", "OBJECT_ID": "1993-036AQA", "EPOCH": "2025-12-18T02:30:16.850016", "MEAN_MOTION": 14.7240967, "ECCENTRICITY": 0.0033127, "INCLINATION": 74.2733, "RA_OF_ASC_NODE": 125.5265, "ARG_OF_PERICENTER": 72.0768, "MEAN_ANOMALY": 288.4013, "EPHEMERIS_TYPE": 0, "CLASSIFICATION_TYPE": "U", "NORAD_CAT_ID": 35705, "ELEMENT_SET_NO": 999, "REV_AT_EPOCH": 86005, "BSTAR": 0.0020233771, "MEAN_MOTION_DOT": 0.00012927, "MEAN_MOTION_DDOT": 0}, "tle": {"line1": "1 35705U 93036AQA 25352.10436169  .00012927  00000+0  20234-2 0  9991", "line2": "2 35705  74.2733 125.5265 0033127  72.0768 288.4013 14.72409670860055"}}, "geometry": {"type": "Point", "coordinates": [114.45169629249867, -7.370735712217211]}}, {"type": "Feature", "properties": {"norad_id": 35706, "name": "COSMOS 2251 DEB", "group": "cosmos-2251-debris", "lat": 0.20306192579000876, "lon": 46.26295567007257, "alt_km": 1024.66969152393, "timestamp": "2025-12-22T18:58:53.829293+00:00", "meta": {"OBJECT_NAME": "COSMOS 2251 DEB", "OBJECT_ID": "1993-036AQB", "EPOCH": "2025-12-21T09:35:04.200288", "MEAN_MOTION": 13.65940195, "ECCENTRICITY": 0.03399329, "INCLINATION": 73.889, "RA_OF_ASC_NODE": 48.5024, "ARG_OF_PERICENTER": 96.6435, "MEAN_ANOMALY": 267.3485, "EPHEMERIS_TYPE": 0, "CLASSIFICATION_TYPE": "U", "NORAD_CAT_ID": 35706, "ELEMENT_SET_NO": 999, "REV_AT_EPOCH": 62180, "BSTAR": 0.00062720687, "MEAN_MOTION_DOT": 7.46e-06, "MEAN_MOTION_DDOT": 0}, "tle": {"line1": "1 35706U 93036AQB 25355.39935417  .00000746  00000+0  62721-3 0  9990", "line2": "2 35706  73.8890  48.5024 0339932  96.6435 267.3485 13.65940195621808"}}, "geometry": {"type": "Point", "coordinates": [46.26295567007257, 0.20306192579000876]}}, {"type": "Feature", "properties": {"norad_id": 35711, "name": "COSMOS 2251 DEB", "group": "cosmos-2251-debris", "lat": 16.46816398532473, "lon": -153.9724278009808, "alt_km": 667.5037339535511, "timestamp": "2025-12-22T18:58:53.829303+00:00", "meta": {"OBJECT_NAME": "COSMOS 2251 DEB", "OBJECT_ID": "1993-036AQG", "EPOCH": "2025-12-18T08:17:23.762688", "MEAN_MOTION": 14.63815796, "ECCENTRICITY": 0.00854507, "INCLINATION": 74.0458, "RA_OF_ASC_NODE": 209.7036, "ARG_OF_PERICENTER": 309.5008, "MEAN_ANOMALY": 49.8625, "EPHEMERIS_TYPE": 0, "CLASSIFICATION_TYPE": "U", "NORAD_CAT_ID": 35711, "ELEMENT_SET_NO": 999, "REV_AT_EPOCH": 87853, "BSTAR": 0.00017154859, "MEAN_MOTION_DOT": 9.1e-06, "MEAN_MOTION_DDOT": 0}, "tle": {"line1": "1 35711U 93036AQG 25352.34541392  .00000910  00000+0  17155-3 0  9997", "line2": "2 35711  74.0458 209.7036 0085450 309.5008  49.8625 14.63815796878536"}}, "geometry": {"type": "Point", "coordinates": [-153.9724278009808, 16.46816398532473]}}, {"type": "Feature", "properties": {"norad_id": 35716, "name": "COSMOS 2251 DEB", "group": "cosmos-2251-debris", "lat": -37.73256663561824, "lon": 162.13647528419457, "alt_km": 660.5597021589119, "timestamp": "2025-12-22T18:58:53.829313+00:00", "meta": {"OBJECT_NAME": "COSMOS 2251 DEB", "OBJECT_ID": "1993-036AQM", "EPOCH": "2025-12-18T21:43:46.154784", "MEAN_MOTION": 14.60092925, "ECCENTRICITY": 0.00890052, "INCLINATION": 73.992, "RA_OF_ASC_NODE": 182.4048, "ARG_OF_PERICENTER": 21.7763, "MEAN_ANOMALY": 44.4198, "EPHEMERIS_TYPE": 0, "CLASSIFICATION_TYPE": "U", "NORAD_CAT_ID": 35716, "ELEMENT_SET_NO": 999, "REV_AT_EPOCH": 87717, "BSTAR": 6.7298004e-05, "MEAN_MOTION_DOT": 3.09e-06, "MEAN_MOTION_DDOT": 0}, "tle": {"line1": "1 35716U 93036AQM 25352.90539531  .00000309  00000+0  67298-4 0  9992", "line2": "2 35716  73.9920 182.4048 0089005  21.7763  44.4198 14.60092925877177"}}, "geometry": {"type": "Point", "coordinates": [162.13647528419457, -37.73256663561824]}}, {"type": "Feature", "properties": {"norad_id": 35717, "name": "COSMOS 2251 DEB", "group": "cosmos-2251-debris", "lat": 28.84193831741926, "lon": -151.89346905101723, "alt_km": 711.7743334950728, "timestamp": "2025-12-22T18:58:53.829323+00:00", "meta": {"OBJECT_NAME": "COSMOS 2251 DEB", "OBJECT_ID": "1993-036AQN", "EPOCH": "2025-12-15T21:36:31.335552", "MEAN_MOTION": 14.38515087, "ECCENTRICITY": 0.00772191, "INCLINATION": 74.1598, "RA_OF_ASC_NODE": 211.7132, "ARG_OF_PERICENTER": 70.2705, "MEAN_ANOMALY": 290.6758, "EPHEMERIS_TYPE": 0, "CLASSIFICATION_TYPE": "U", "NORAD_CAT_ID": 35717, "ELEMENT_SET_NO": 999, "REV_AT_EPOCH": 74145, "BSTAR": 0.0007891897, "MEAN_MOTION_DOT": 2.473e-05, "MEAN_MOTION_DDOT": 0}, "tle": {"line1": "1 35717U 93036AQN 25349.90036268  .00002473  00000+0  78919-3 0  9993", "line2": "2 35717  74.1598 211.7132 0077219  70.2705 290.6758 14.38515087741453"}}, "geometry": {"type": "Point", "coordinates": [-151.89346905101723, 28.84193831741926]}}, {"type": "Feature", "properties": {"norad_id": 35718, "name": "COSMOS 2251 DEB", "group": "cosmos-2251-debris", "lat": 31.77669861151421, "lon": -79.69593014665264, "alt_km": 655.4537675154161, "timestamp": "2025-12-22T18:58:53.829333+00:00", "meta": {"OBJECT_NAME": "COSMOS 2251 DEB", "OBJECT_ID": "1993-036AQP", "EPOCH": "2025-12-17T02:38:13.400448", "MEAN_MOTION": 14.68736376, "ECCENTRICITY": 0.00104417, "INCLINATION": 74.0312, "RA_OF_ASC_NODE": 121.5128, "ARG_OF_PERICENTER": 170.1123, "MEAN_ANOMALY": 190.0255, "EPHEMERIS_TYPE": 0, "CLASSIFICATION_TYPE": "U", "NORAD_CAT_ID": 35718, "ELEMENT_SET_NO": 999, "REV_AT_EPOCH": 65904, "BSTAR": 0.0013106326, "MEAN_MOTION_DOT": 7.622e-05, "MEAN_MOTION_DDOT": 0}, "tle": {"line1": "1 35718U 93036AQP 25351.10987732  .00007622  00000+0  13106-2 0  9997", "line2": "2 35718  74.0312 121.5128 0010441 170.1123 190.0255 14.68736376659045"}}, "geometry": {"type": "Point", "coordinates": [-79.69593014665264, 31.77669861151421]}}, {"type": "Feature", "properties": {"norad_id": 35721, "name": "COSMOS 2251 DEB", "group": "cosmos-2251-debris", "lat": 7.812551839473194, "lon": 161.50160950084359, "alt_km": 732.531159382901, "timestamp": "2025-12-22T18:58:53.829343+00:00", "meta": {"OBJECT_NAME": "COSMOS 2251 DEB", "OBJECT_ID": "1993-036AQS", "EPOCH": "2025-12-09T19:36:39.465216", "MEAN_MOTION": 14.34317214, "ECCENTRICITY": 0.01465875, "INCLINATION": 73.9489, "RA_OF_ASC_NODE": 183.1196, "ARG_OF_PERICENTER": 330.1589, "MEAN_ANOMALY": 29.126, "EPHEMERIS_TYPE": 0, "CLASSIFICATION_TYPE": "U", "NORAD_CAT_ID": 35721, "ELEMENT_SET_NO": 999, "REV_AT_EPOCH": 57747, "BSTAR": 0.0018396061, "MEAN_MOTION_DOT": 5.808e-05, "MEAN_MOTION_DDOT": 0}, "tle": {"line1": "1 35721U 93036AQS 25343.81712344  .00005808  00000+0  18396-2 0  9995", "line2": "2 35721  73.9489 183.1196 0146587 330.1589  29.1260 14.34317214577479"}}, "geometry": {"type": "Point", "coordinates": [161.50160950084359, 7.812551839473194]}}, {"type": "Feature", "properties": {"norad_id": 35724, "name": "COSMOS 2251 DEB", "group": "cosmos-2251-debris", "lat": 74.00357894717833, "lon": 10.652527358526658, "alt_km": 651.165785267196, "timestamp": "2025-12-22T18:58:53.829353+00:00", "meta": {"OBJECT_NAME": "COSMOS 2251 DEB", "OBJECT_ID": "1993-036AQV", "EPOCH": "2025-12-22T02:06:46.007136", "MEAN_MOTION": 14.58219865, "ECCENTRICITY": 0.0058953, "INCLINATION": 74.033, "RA_OF_ASC_NODE": 284.8882, "ARG_OF_PERICENTER": 75.7693, "MEAN_ANOMALY": 285.001, "EPHEMERIS_TYPE": 0, "CLASSIFICATION_TYPE": "U", "NORAD_CAT_ID": 35724, "ELEMENT_SET_NO": 999, "REV_AT_EPOCH": 87665, "BSTAR": 0.00023860841, "MEAN_MOTION_DOT": 1.098e-05, "MEAN_MOTION_DDOT": 0}, "tle": {"line1": "1 35724U 93036AQV 25356.08803249  .00001098  00000+0  23861-3 0  9997", "line2": "2 35724  74.0330 284.8882 0058953  75.7693 285.0010 14.58219865876654"}}, "geometry": {"type": "Point", "coordinates": [10.652527358526658, 74.00357894717833]}}, {"type": "Feature", "properties": {"norad_id": 35759, "name": "COSMOS 2251 DEB", "group": "cosmos-2251-debris", "lat": -7.686631005397005, "lon": 18.932016505717023, "alt_km": 711.6494474305173, "timestamp": "2025-12-22T18:58:53.829363+00:00", "meta": {"OBJECT_NAME": "COSMOS 2251 DEB", "OBJECT_ID": "1993-036ARD", "EPOCH": "2025-12-20T20:13:43.592160", "MEAN_MOTION": 14.64913481, "ECCENTRICITY": 0.00772857, "INCLINATION": 74.0358, "RA_OF_ASC_NODE": 200.4631, "ARG_OF_PERICENTER": 316.7662, "MEAN_ANOMALY": 42.7455, "EPHEMERIS_TYPE": 0, "CLASSIFICATION_TYPE": "U", "NORAD_CAT_ID": 35759, "ELEMENT_SET_NO": 999, "REV_AT_EPOCH": 66254, "BSTAR": 0.00015891508, "MEAN_MOTION_DOT": 8.54e-06, "MEAN_MOTION_DDOT": 0}, "tle": {"line1": "1 35759U 93036ARD 25354.84286565  .00000854  00000+0  15892-3 0  9997", "line2": "2 35759  74.0358 200.4631 0077285 316.7662  42.7455 14.64913481662545"}}, "geometry": {"type": "Point", "coordinates": [18.932016505717023, -7.686631005397005]}}, {"type": "Feature", "properties": {"norad_id": 35771, "name": "COSMOS 2251 DEB", "group": "cosmos-2251-debris", "lat": 41.41109730861491, "lon": 98.15341570163262, "alt_km": 845.6715710856834, "timestamp": "2025-12-22T18:58:53.829373+00:00", "meta": {"OBJECT_NAME": "COSMOS 2251 DEB", "OBJECT_ID": "1993-036ARR", "EPOCH": "2025-12-15T14:45:16.238592", "MEAN_MOTION": 14.13430046, "ECCENTRICITY": 0.02280549, "INCLINATION": 74.1561, "RA_OF_ASC_NODE": 305.27, "ARG_OF_PERICENTER": 242.9998, "MEAN_ANOMALY": 114.7698, "EPHEMERIS_TYPE": 0, "CLASSIFICATION_TYPE": "U", "NORAD_CAT_ID": 35771, "ELEMENT_SET_NO": 999, "REV_AT_EPOCH": 82901, "BSTAR": 0.0026764238, "MEAN_MOTION_DOT": 6.427e-05, "MEAN_MOTION_DDOT": 0}, "tle": {"line1": "1 35771U 93036ARR 25349.61477128  .00006427  00000+0  26764-2 0  9998", "line2": "2 35771  74.1561 305.2700 0228054 242.9998 114.7698 14.13430046829012"}}, "geometry": {"type": "Point", "coordinates": [98.15341570163262, 41.41109730861491]}}]}